[{"OBJECT_NAME":"STARLINK-4420","OBJECT_ID":"2022-105G","EPOCH":"2026-03-09T16:08:00.093120","MEAN_MOTION":15.05644598,"ECCENTRICITY":0.00020924,"INCLINATION":97.6024,"RA_OF_ASC_NODE":311.1617,"ARG_OF_PERICENTER":91.2741,"MEAN_ANOMALY":268.8726,"EPHEMERIS_TYPE":0,"CLASSIFICATION_TYPE":"U","NORAD_CAT_ID":53654,"ELEMENT_SET_NO":999,"REV_AT_EPOCH":19329,"BSTAR":3.3005245e-5,"MEAN_MOTION_DOT":4.15e-6,"MEAN_MOTION_DDOT":0},{"OBJECT_NAME":"CZ-2C R\/B","OBJECT_ID":"2026-021B","EPOCH":"2026-03-09T21:51:23.415552","MEAN_MOTION":15.24093237,"ECCENTRICITY":0.01506252,"INCLINATION":97.65,"RA_OF_ASC_NODE":144.3935,"ARG_OF_PERICENTER":10.4871,"MEAN_ANOMALY":349.9447,"EPHEMERIS_TYPE":0,"CLASSIFICATION_TYPE":"U","NORAD_CAT_ID":67647,"ELEMENT_SET_NO":999,"REV_AT_EPOCH":573,"BSTAR":0.00038397881,"MEAN_MOTION_DOT":0.00012809,"MEAN_MOTION_DDOT":0}]
